{"type":"FeatureCollection","features":[{"type":"Feature","properties":{"name":"Primary stream","order":4,"length_km":26.8},"geometry":{"type":"LineString","coordinates":[[75.79,22.765],[75.815,22.755],[75.837,22.746],[75.855,22.735],[75.874,22.725],[75.9,22.705]]}},{"type":"Feature","properties":{"name":"Tributary north","order":2,"length_km":12.4},"geometry":{"type":"LineString","coordinates":[[75.82,22.78],[75.832,22.762],[75.837,22.746],[75.85,22.73]]}},{"type":"Feature","properties":{"name":"Tributary south","order":2,"length_km":9.7},"geometry":{"type":"LineString","coordinates":[[75.78,22.705],[75.8,22.72],[75.837,22.746],[75.86,22.756]]}},{"type":"Feature","properties":{"name":"Seasonal channel","order":1,"length_km":4.1},"geometry":{"type":"LineString","coordinates":[[75.88,22.77],[75.863,22.758],[75.846,22.749]]}}]}
