{"type":"FeatureCollection","features":[{"type":"Feature","properties":{"name":"Forest","category":"Forest","area_km2":74.0},"geometry":{"type":"Polygon","coordinates":[[[75.78,22.70],[75.82,22.68],[75.88,22.69],[75.91,22.72],[75.88,22.75],[75.82,22.75],[75.78,22.70]]]}},{"type":"Feature","properties":{"name":"Agriculture","category":"Agriculture","area_km2":91.3},"geometry":{"type":"Polygon","coordinates":[[[75.82,22.72],[75.85,22.72],[75.88,22.74],[75.86,22.78],[75.82,22.78],[75.80,22.75],[75.82,22.72]]]}},{"type":"Feature","properties":{"name":"Built-up Area","category":"Built-up Area","area_km2":22.2},"geometry":{"type":"Polygon","coordinates":[[[75.85,22.69],[75.89,22.70],[75.90,22.72],[75.87,22.73],[75.84,22.72],[75.85,22.69]]]}}]}
