{"type":"FeatureCollection","features":[{"type":"Feature","properties":{"name":"Low Degradation","category":"Low","share":33},"geometry":{"type":"Polygon","coordinates":[[[75.78,22.70],[75.82,22.68],[75.85,22.70],[75.84,22.74],[75.80,22.75],[75.78,22.70]]]}},{"type":"Feature","properties":{"name":"Moderate Degradation","category":"Moderate","share":29},"geometry":{"type":"Polygon","coordinates":[[[75.82,22.72],[75.86,22.70],[75.89,22.73],[75.87,22.77],[75.84,22.77],[75.82,22.72]]]}},{"type":"Feature","properties":{"name":"High Degradation","category":"High","share":18},"geometry":{"type":"Polygon","coordinates":[[[75.86,22.74],[75.89,22.73],[75.91,22.75],[75.90,22.78],[75.87,22.77],[75.86,22.74]]]}}]}
