{"type":"FeatureCollection","features":[{"type":"Feature","properties":{"name":"Very High Moisture","category":"Very High","share":10},"geometry":{"type":"Polygon","coordinates":[[[75.78,22.70],[75.82,22.68],[75.86,22.69],[75.85,22.72],[75.80,22.73],[75.78,22.70]]]}},{"type":"Feature","properties":{"name":"High Moisture","category":"High","share":22},"geometry":{"type":"Polygon","coordinates":[[[75.80,22.73],[75.85,22.72],[75.88,22.74],[75.86,22.78],[75.82,22.78],[75.80,22.73]]]}},{"type":"Feature","properties":{"name":"Moderate Moisture","category":"Moderate","share":40},"geometry":{"type":"Polygon","coordinates":[[[75.85,22.72],[75.90,22.70],[75.91,22.74],[75.88,22.77],[75.86,22.78],[75.85,22.72]]]}}]}
