{"type":"FeatureCollection","features":[{"type":"Feature","properties":{"name":"Dense Vegetation","category":"Dense Vegetation","canopy":"High"},"geometry":{"type":"Polygon","coordinates":[[[75.78,22.70],[75.82,22.68],[75.88,22.69],[75.91,22.72],[75.88,22.75],[75.82,22.75],[75.78,22.70]]]}},{"type":"Feature","properties":{"name":"Moderate Vegetation","category":"Moderate Vegetation","canopy":"Medium"},"geometry":{"type":"Polygon","coordinates":[[[75.82,22.72],[75.85,22.72],[75.88,22.74],[75.86,22.78],[75.82,22.78],[75.80,22.75],[75.82,22.72]]]}}]}
